ONEWEB-0326             
1 49195U 21083K   23010.14379192  .00000096  00000+0  21102-3 0  9997
2 49195  87.9195 224.5917 0001123 113.4912 246.6338 13.18684736 66008
ONEWEB-0327             
1 49196U 21083L   23010.12060505  .00000010  00000+0 -82127-5 0  9994
2 49196  87.9187 224.5735 0001314 123.7516 236.3741 13.18682799 66027
ONEWEB-0328             
1 49197U 21083M   23010.26256835 -.00000223  00000+0 -64682-3 0  9994
2 49197  87.9022 209.3856 0001298  89.9628 270.1650 13.13471428 67586
ONEWEB-0331             
1 49198U 21083N   23010.28921620  .00000073  00000+0  15303-3 0  9995
2 49198  87.9191 224.5848 0001271  99.4944 260.6332 13.18684861 66034
ONEWEB-0333             
1 49199U 21083P   23010.25726489 -.00000712  00000+0 -19844-2 0  9994
2 49199  87.9024 209.3867 0001626  85.0084 275.1231 13.13468175 67596
ONEWEB-0334             
1 49200U 21083Q   23009.65208831  .00000009  00000+0 -97956-5 0  9996
2 49200  87.9317 164.1118 0002473  91.7866 268.3550 13.20770486 71192
ONEWEB-0335             
1 49201U 21083R   23010.25306997 -.00000060  00000+0 -19917-3 0  9994
2 49201  87.9022 209.3801 0001234  86.6795 273.4476 13.13467817 67603
ONEWEB-0336             
1 49202U 21083S   23010.29751532  .00000300  00000+0  78772-3 0  9997
2 49202  87.9018 209.3716 0001628  87.5613 272.5702 13.13472845 67610
ONEWEB-0337             
1 49203U 21083T   23010.24459659  .00000190  00000+0  48404-3 0  9994
2 49203  87.9024 209.3848 0001328  87.0343 273.0938 13.13470520 67600
ONEWEB-0338             
1 49204U 21083U   23010.34021675 -.00016894  00000+0 -41593-1 0  9999
2 49204  87.9269 163.9837 0001789  72.6485 287.4844 13.20878944 72604
ONEWEB-0339             
1 49205U 21083V   23010.24354558  .00000648  00000+0  17388-2 0  9992
2 49205  87.9020 209.3842 0001498  70.4864 289.6427 13.13466977 67588
ONEWEB-0340             
1 49206U 21083W   23010.35035574 -.00000033  00000+0 -11607-3 0  9998
2 49206  87.9186 224.5628 0001385  92.2747 267.8544 13.18693611 66017
ONEWEB-0341             
1 49207U 21083X   23010.28291494  .00000059  00000+0  11601-3 0  9996
2 49207  87.9192 224.5078 0001067  41.1286 318.9926 13.18687666 66028
ONEWEB-0342             
1 49208U 21083Y   23010.34442526  .00000000  00000+0 -32115-4 0  9999
2 49208  87.9316 163.9814 0001949  82.6996 277.4359 13.20771603 72572
ONEWEB-0343             
1 49209U 21083Z   23010.27867452  .00000006  00000+0 -18583-4 0  9990
2 49209  87.9189 224.5454 0001562  39.7392 320.3854 13.18690154 66073
ONEWEB-0344             
1 49210U 21083AA  23010.28479614 -.00000004  00000+0 -47038-4 0  9998
2 49210  87.9021 209.3797 0001285  97.9621 262.1654 13.13468966 67592
ONEWEB-0345             
1 49211U 21083AB  23010.30279021  .00000324  00000+0  85103-3 0  9999
2 49211  87.9019 209.3620 0000718  96.8690 263.2521 13.13470576 67606
ONEWEB-0346             
1 49212U 21083AC  23010.28711340  .00000020  00000+0  17864-4 0  9995
2 49212  87.9192 224.5354 0001169 107.1074 253.0186 13.18688458 66018
ONEWEB-0348             
1 49213U 21083AD  23010.33817490  .00003052  00000+0  74714-2 0  9998
2 49213  87.9297 163.9432 0001238 119.0957 241.0300 13.20766293 72601
ONEWEB-0350             
1 49214U 21083AE  23010.31231168  .00000282  00000+0  73768-3 0  9990
2 49214  87.9021 209.3865 0001078  92.1974 267.9278 13.13472133 67631
ONEWEB-0351             
1 49215U 21083AF  23010.33165497 -.00015800  00000+0 -38995-1 0  9999
2 49215  87.9287 163.9889 0002337  78.0516 282.0879 13.20710283 72574
ONEWEB-0352             
1 49216U 21083AG  23010.29325074  .00000229  00000+0  59187-3 0  9999
2 49216  87.9020 209.3742 0001699  73.9853 286.1463 13.13472348 67725
ONEWEB-0354             
1 49217U 21083AH  23010.35280936  .00000057  00000+0  10834-3 0  9999
2 49217  87.9316 163.9150 0001418  82.5891 277.5403 13.20783073 72619
ONEWEB-0355             
1 49218U 21083AJ  23010.24885875  .00000475  00000+0  12657-2 0  9999
2 49218  87.9024 209.3859 0001413  75.4587 284.6699 13.13471869 67591
ONEWEB-0357             
1 49219U 21083AK  23010.41667824  .00000013  00000+0  00000+0 0  9995
2 49219  87.9464 163.9596 0001083 129.6372 168.6859 13.26149400 72615
ONEWEB-0332             
1 49279U 21090A   23009.87552144 -.00000190  00000+0 -54714-3 0  9998
2 49279  87.9084 179.1884 0001953  82.2639 277.8713 13.14500745 62794
ONEWEB-0347             
1 49280U 21090B   23009.69860998  .00000069  00000+0  11227-3 0  9994
2 49280  87.9842 164.0925 0001525 138.6624 221.4632 13.34173661 65447
ONEWEB-0349             
1 49281U 21090C   23010.15500503  .00000107  00000+0  23033-3 0  9992
2 49281  87.9313 163.9754 0001011 104.5868 255.5377 13.20770286 65581
ONEWEB-0353             
1 49282U 21090D   23009.71483554 -.00000173  00000+0 -50039-3 0  9990
2 49282  87.9029 179.1973 0001888  89.6084 270.5263 13.14502255 62774
ONEWEB-0356             
1 49283U 21090E   23009.69836545  .00000065  00000+0  12699-3 0  9998
2 49283  87.9225 164.0776 0001762 133.4830 226.6450 13.20772681 64237
ONEWEB-0358             
1 49284U 21090F   23009.72362200 -.00000109  00000+0 -29983-3 0  9990
2 49284  87.9310 164.0398 0001154 114.2596 245.8658 13.20770835 64966
ONEWEB-0359             
1 49285U 21090G   23009.87302924  .00000024  00000+0  26992-4 0  9996
2 49285  87.9309 164.0475 0000955  82.0766 278.0476 13.20771072 64960
ONEWEB-0360             
1 49286U 21090H   23009.71308993 -.00000274  00000+0 -70670-3 0  9992
2 49286  87.9316 164.0651 0001416  99.8294 260.2999 13.20771967 64258
ONEWEB-0361             
1 49287U 21090J   23009.69627025  .00000265  00000+0  61950-3 0  9999
2 49287  87.9267 164.0674 0001426 101.2699 258.8595 13.20770269 64706
ONEWEB-0362             
1 49288U 21090K   23010.24329583  .00000060  00000+0  11755-3 0  9992
2 49288  87.9279 194.2316 0001700  91.5158 268.6170 13.19723649 62348
ONEWEB-0363             
1 49289U 21090L   23009.71100578 -.00000013  00000+0 -62995-4 0  9997
2 49289  87.9312 164.0647 0001335 112.9949 247.1325 13.20772972 64711
ONEWEB-0364             
1 49290U 21090M   23010.41667824  .00000013  00000+0  00000+0 0  9992
2 49290  87.9630 163.9868 0001707 164.0375  67.0761 13.29574392 66757
ONEWEB-0365             
1 49291U 21090N   23010.40336383 -.00000057  00000+0 -17390-3 0  9999
2 49291  87.9231 194.1910 0001394  89.6307 270.4985 13.19732441 62347
ONEWEB-0366             
1 49292U 21090P   23010.39563897  .00000033  00000+0  54859-4 0  9994
2 49292  87.9091 179.0574 0001737  97.6733 262.4594 13.14505984 64145
ONEWEB-0367             
1 49293U 21090Q   23010.39070571 -.00000002  00000+0 -36907-4 0  9999
2 49293  87.9199 163.9348 0001896  95.7409 264.3941 13.20770405 65621
ONEWEB-0368             
1 49294U 21090R   23010.39619762 -.00000055  00000+0 -13706-3 0  9990
2 49294  87.9874 164.0002 0000232 152.0910 208.0243 13.33944128 66774
ONEWEB-0369             
1 49295U 21090S   23009.48935078 -.00000025  00000+0 -93909-4 0  9991
2 49295  87.9221 194.3756 0001639  92.6265 267.5056 13.19725213 60926
ONEWEB-0370             
1 49296U 21090T   23009.86672172 -.00000043  00000+0 -13734-3 0  9994
2 49296  87.9238 164.0446 0001528 101.7393 258.3912 13.20770920 64296
ONEWEB-0371             
1 49297U 21090U   23010.25592899 -.00000021  00000+0 -84215-4 0  9996
2 49297  87.9270 194.2087 0001631  89.1367 270.9952 13.19723669 62359
ONEWEB-0372             
1 49298U 21090V   23009.70677776  .00000052  00000+0  96296-4 0  9997
2 49298  87.9236 164.0683 0002012  99.2245 260.9115 13.20772853 64241
ONEWEB-0373             
1 49299U 21090W   23010.41667824  .00007380  00000+0  16465-1 0  9999
2 49299  87.9572 163.9596 0001395 114.8417 197.7251 13.27137958 66826
ONEWEB-0374             
1 49300U 21090X   23010.38296909  .00000213  00000+0  53894-3 0  9997
2 49300  87.9035 179.0696 0001575  96.3187 263.8122 13.14504703 64136
ONEWEB-0375             
1 49301U 21090Y   23009.87091656  .00000041  00000+0  68071-4 0  9995
2 49301  87.9307 164.0399 0001381 132.5742 227.5508 13.20771645 64951
ONEWEB-0376             
1 49302U 21090Z   23010.40546783 -.00000019  00000+0 -79785-4 0  9994
2 49302  87.9215 194.1958 0001840  83.9661 276.1681 13.19727032 62368
ONEWEB-0377             
1 49303U 21090AA  23009.86882052 -.00000141  00000+0 -37857-3 0  9994
2 49303  87.9309 164.0353 0001271  90.3135 269.8144 13.20770669 64949
ONEWEB-0378             
1 49304U 21090AB  23010.36755072  .00000120  00000+0  26419-3 0  9990
2 49304  87.9201 163.9446 0001821  97.4623 262.6717 13.20773755 65591
ONEWEB-0379             
1 49305U 21090AC  23010.37663476  .00000220  00000+0  55956-3 0  9997
2 49305  87.9051 179.0704 0001602  95.0278 265.1034 13.14502087 64148
ONEWEB-0380             
1 49306U 21090AD  23010.40124926  .00000009  00000+0 -94619-5 0  9991
2 49306  87.9217 194.2011 0001306  84.6239 275.5043 13.19724730 62335
ONEWEB-0381             
1 49307U 21090AE  23009.85619256  .00000023  00000+0  24862-4 0  9991
2 49307  87.9237 164.0661 0001297 102.4008 257.7271 13.20772422 64257
ONEWEB-0382             
1 49308U 21090AF  23009.69415908  .00000006  00000+0 -17523-4 0  9990
2 49308  87.9235 164.0793 0001437 118.6093 241.5185 13.20772140 64220
ONEWEB-0383             
1 49309U 21090AG  23010.37028721  .00000211  00000+0  53373-3 0  9990
2 49309  87.9085 179.0472 0001653 101.6050 258.5266 13.14503247 64163
ONEWEB-0384             
1 49310U 21090AH  23009.69204455  .00000099  00000+0  21183-3 0  9993
2 49310  87.9218 164.0714 0001545 133.7599 226.3663 13.20773030 64238
ONEWEB-0385             
1 49311U 21090AJ  23010.36964925  .00000117  00000+0  25520-3 0  9995
2 49311  87.9243 163.9439 0001614 114.3267 245.8035 13.20770186 65614
ONEWEB-0386             
1 49312U 21090AK  23009.70257944 -.00000002  00000+0 -37998-4 0  9996
2 49312  87.9314 164.0668 0001785 111.6939 248.4385 13.20772726 64220
